OBJECT_NAME,OBJECT_ID,EPOCH,MEAN_MOTION,ECCENTRICITY,INCLINATION,RA_OF_ASC_NODE,ARG_OF_PERICENTER,MEAN_ANOMALY,EPHEMERIS_TYPE,CLASSIFICATION_TYPE,NORAD_CAT_ID,ELEMENT_SET_NO,REV_AT_EPOCH,BSTAR,MEAN_MOTION_DOT,MEAN_MOTION_DDOT
ONEWEB-0189,2021-031H,2026-06-05T19:43:05.115936,13.14502072,.0001801,87.8959,291.9635,110.0025,250.1298,0,U,48217,999,24673,.47882E-3,.19E-5,0
ONEWEB-0196,2021-031J,2026-06-05T19:11:06.623808,13.14502501,.00018782,87.8957,291.9774,104.5076,255.6262,0,U,48218,999,24673,-.24339089E-3,-.77E-6,0
ONEWEB-0183,2021-031K,2026-06-05T20:24:11.162016,13.14502669,.0002035,87.8957,291.9652,98.2547,261.8814,0,U,48219,999,24683,-.14088E-3,-.39E-6,0
ONEWEB-0185,2021-031L,2026-06-05T19:12:14.163552,13.14502508,.00021926,87.8961,291.9679,105.8017,254.3355,0,U,48220,999,24675,-.64787409E-4,-.11E-6,0
ONEWEB-0187,2021-031M,2026-06-05T20:33:07.139232,13.14502069,.0001985,87.8949,291.9733,106.3141,253.8207,0,U,48221,999,24677,-.478E-3,-.164E-5,0
ONEWEB-0192,2021-031N,2026-06-05T19:49:54.971616,13.14504510,.0001739,87.8951,291.9697,102.2970,257.8355,0,U,48222,999,24668,.8041E-3,.311E-5,0
ONEWEB-0219,2021-031P,2026-06-05T19:20:13.764768,13.14504036,.00020343,87.8952,291.9658,105.9279,254.2075,0,U,48223,999,24688,.87280729E-4,.45E-6,0
ONEWEB-0202,2021-031Q,2026-06-05T20:42:27.207360,13.14502408,.0001462,87.8956,291.9656,118.6618,241.4659,0,U,48224,999,24687,-.61179E-3,-.214E-5,0
ONEWEB-0204,2021-031R,2026-06-05T19:41:56.675040,13.14501294,.0002237,87.8941,291.9692,99.0717,261.0666,0,U,48225,999,24676,.42088E-3,.169E-5,0
ONEWEB-0205,2021-031S,2026-06-05T19:06:32.135328,13.14504175,.00019393,87.8962,291.9663,106.1650,253.9694,0,U,48226,999,24677,-.49121109E-3,-.169E-5,0
ONEWEB-0182,2021-031U,2026-06-05T20:10:28.787808,13.14501653,.0002099,87.8963,291.9677,97.9454,262.1914,0,U,48228,999,24694,.23647E-3,.1E-5,0
ONEWEB-0186,2021-031V,2026-06-05T20:26:27.489120,13.14501995,.0001887,87.8964,291.9552,102.7483,257.3857,0,U,48229,999,24689,-.15179E-3,-.43E-6,0
ONEWEB-0181,2021-031W,2026-06-05T19:54:30.280032,13.14502529,.0001861,87.8948,291.9910,107.0589,253.0745,0,U,48230,999,24674,.71084E-3,.276E-5,0
ONEWEB-0188,2021-031X,2026-06-05T09:51:38.853504,13.14503926,.00019345,87.8946,292.0732,100.8292,259.3055,0,U,48231,999,24659,-.25733076E-3,-.83E-6,0
ONEWEB-0220,2021-031Y,2026-06-05T19:56:45.466656,13.14501584,.0002066,87.8964,291.9611,107.2567,252.8789,0,U,48232,999,24691,.66892E-3,.261E-5,0
ONEWEB-0165,2021-031Z,2026-06-05T20:37:51.525696,13.14502082,.0001716,87.8935,291.9650,114.6974,245.4334,0,U,48233,999,24687,-.56536E-3,-.197E-5,0
ONEWEB-0199,2021-031AA,2026-06-05T20:15:03.017088,13.14502280,.0001882,87.8965,291.9573,94.2480,265.8865,0,U,48234,999,24677,.64129E-4,.37E-6,0
ONEWEB-0203,2021-031AB,2026-06-05T20:01:20.958240,13.14501560,.0001713,87.8964,291.9628,99.5622,260.5701,0,U,48235,999,24678,.49411E-3,.196E-5,0
ONEWEB-0197,2021-031AC,2026-06-05T19:24:37.185408,13.14503427,.00021956,87.8947,291.9554,100.2150,259.9227,0,U,48236,999,24669,-.28582E-6,.13E-6,0
ONEWEB-0194,2021-031AD,2026-06-05T20:44:43.664064,13.14502577,.00017,87.8946,291.9640,93.6390,266.4934,0,U,48237,999,24687,-.6164E-3,-.216E-5,0
ONEWEB-0193,2021-031AE,2026-06-05T19:17:57.257088,13.14502620,.0001641,87.8957,291.9683,87.1526,272.9792,0,U,48238,999,24681,-.19892291E-4,.5E-7,0
ONEWEB-0191,2021-031AF,2026-06-05T19:33:57.026304,13.14501873,.0002084,87.8960,291.9638,97.4786,262.6580,0,U,48239,999,24667,.34475E-3,.141E-5,0
ONEWEB-0195,2021-031AG,2026-06-05T09:52:45.418656,13.14501944,.0001781,87.8962,292.0448,112.3071,247.8248,0,U,48240,999,24660,-.72222413E-3,-.255E-5,0
ONEWEB-0201,2021-031AH,2026-06-05T20:33:30.578688,13.14504712,.0002092,87.8953,291.9729,101.3794,258.7571,0,U,48241,999,24689,-.42519E-3,-.145E-5,0
ONEWEB-0208,2021-031AK,2026-06-05T19:38:31.235712,13.14503196,.0001683,87.8959,291.9719,110.1272,250.0039,0,U,48243,999,24681,.59288E-3,.233E-5,0
ONEWEB-0200,2021-031AL,2026-06-05T20:35:35.342016,13.14502331,.0001869,87.8960,291.9498,103.1988,256.9350,0,U,48244,999,24674,-.48212E-3,-.166E-5,0
ONEWEB-0217,2021-031AM,2026-06-05T19:08:49.283232,13.14502317,.00017774,87.8963,291.9663,110.0861,250.0460,0,U,48245,999,24668,-.21989546E-3,-.69E-6,0
