[
  {
    "name": "ONEWEB-0189",
    "noradId": "48217",
    "line1": "1 48217U 21031H   26156.82158700  .00000190  00000+0  47882-3 0  9991",
    "line2": "2 48217  87.8959 291.9635 0001801 110.0025 250.1298 13.14502072246738"
  },
  {
    "name": "ONEWEB-0196",
    "noradId": "48218",
    "line1": "1 48218U 21031J   26156.79938222 -.00000077  00000+0 -24339-3 0  9991",
    "line2": "2 48218  87.8957 291.9774 0001878 104.5076 255.6262 13.14502501246737"
  },
  {
    "name": "ONEWEB-0183",
    "noradId": "48219",
    "line1": "1 48219U 21031K   26156.85012919 -.00000039  00000+0 -14088-3 0  9993",
    "line2": "2 48219  87.8957 291.9652 0002034  98.2547 261.8814 13.14502669246838"
  },
  {
    "name": "ONEWEB-0185",
    "noradId": "48220",
    "line1": "1 48220U 21031L   26156.80016393 -.00000011  00000+0 -64787-4 0  9992",
    "line2": "2 48220  87.8961 291.9679 0002192 105.8017 254.3355 13.14502508246756"
  },
  {
    "name": "ONEWEB-0187",
    "noradId": "48221",
    "line1": "1 48221U 21031M   26156.85633263 -.00000164  00000+0 -47800-3 0  9994",
    "line2": "2 48221  87.8949 291.9733 0001985 106.3141 253.8207 13.14502069246771"
  },
  {
    "name": "ONEWEB-0192",
    "noradId": "48222",
    "line1": "1 48222U 21031N   26156.82633070  .00000311  00000+0  80410-3 0  9994",
    "line2": "2 48222  87.8951 291.9697 0001739 102.2970 257.8355 13.14504510246687"
  },
  {
    "name": "ONEWEB-0219",
    "noradId": "48223",
    "line1": "1 48223U 21031P   26156.80571487  .00000045  00000+0  87281-4 0  9994",
    "line2": "2 48223  87.8952 291.9658 0002034 105.9279 254.2075 13.14504036246882"
  },
  {
    "name": "ONEWEB-0202",
    "noradId": "48224",
    "line1": "1 48224U 21031Q   26156.86281490 -.00000214  00000+0 -61179-3 0  9990",
    "line2": "2 48224  87.8956 291.9656 0001462 118.6618 241.4659 13.14502408246873"
  },
  {
    "name": "ONEWEB-0204",
    "noradId": "48225",
    "line1": "1 48225U 21031R   26156.82079486  .00000169  00000+0  42088-3 0  9992",
    "line2": "2 48225  87.8941 291.9692 0002237  99.0717 261.0666 13.14501294246767"
  },
  {
    "name": "ONEWEB-0205",
    "noradId": "48226",
    "line1": "1 48226U 21031S   26156.79620527 -.00000169  00000+0 -49121-3 0  9994",
    "line2": "2 48226  87.8962 291.9663 0001939 106.1650 253.9694 13.14504175246776"
  },
  {
    "name": "ONEWEB-0182",
    "noradId": "48228",
    "line1": "1 48228U 21031U   26156.84061098  .00000100  00000+0  23647-3 0  9992",
    "line2": "2 48228  87.8963 291.9677 0002098  97.9454 262.1914 13.14501653246944"
  },
  {
    "name": "ONEWEB-0186",
    "noradId": "48229",
    "line1": "1 48229U 21031V   26156.85170705 -.00000043  00000+0 -15179-3 0  9999",
    "line2": "2 48229  87.8964 291.9552 0001886 102.7483 257.3857 13.14501995246894"
  },
  {
    "name": "ONEWEB-0181",
    "noradId": "48230",
    "line1": "1 48230U 21031W   26156.82951714  .00000276  00000+0  71084-3 0  9998",
    "line2": "2 48230  87.8948 291.9910 0001860 107.0589 253.0745 13.14502529246740"
  },
  {
    "name": "ONEWEB-0188",
    "noradId": "48231",
    "line1": "1 48231U 21031X   26156.41086636 -.00000083  00000+0 -25733-3 0  9994",
    "line2": "2 48231  87.8946 292.0732 0001934 100.8292 259.3055 13.14503926246595"
  },
  {
    "name": "ONEWEB-0220",
    "noradId": "48232",
    "line1": "1 48232U 21031Y   26156.83108180  .00000261  00000+0  66892-3 0  9997",
    "line2": "2 48232  87.8964 291.9611 0002065 107.2567 252.8789 13.14501584246918"
  },
  {
    "name": "ONEWEB-0165",
    "noradId": "48233",
    "line1": "1 48233U 21031Z   26156.85962415 -.00000197  00000+0 -56536-3 0  9993",
    "line2": "2 48233  87.8935 291.9650 0001716 114.6974 245.4334 13.14502082246879"
  },
  {
    "name": "ONEWEB-0199",
    "noradId": "48234",
    "line1": "1 48234U 21031AA  26156.84378493  .00000037  00000+0  64129-4 0  9999",
    "line2": "2 48234  87.8965 291.9573 0001881  94.2480 265.8865 13.14502280246779"
  },
  {
    "name": "ONEWEB-0203",
    "noradId": "48235",
    "line1": "1 48235U 21031AB  26156.83427035  .00000196  00000+0  49411-3 0  9998",
    "line2": "2 48235  87.8964 291.9628 0001713  99.5622 260.5701 13.14501560246782"
  },
  {
    "name": "ONEWEB-0197",
    "noradId": "48236",
    "line1": "1 48236U 21031AC  26156.80876372  .00000013  00000+0 -28582-6 0  9996",
    "line2": "2 48236  87.8947 291.9554 0002195 100.2150 259.9227 13.14503427246692"
  },
  {
    "name": "ONEWEB-0194",
    "noradId": "48237",
    "line1": "1 48237U 21031AD  26156.86439426 -.00000216  00000+0 -61640-3 0  9993",
    "line2": "2 48237  87.8946 291.9640 0001700  93.6390 266.4934 13.14502577246873"
  },
  {
    "name": "ONEWEB-0193",
    "noradId": "48238",
    "line1": "1 48238U 21031AE  26156.80413492  .00000005  00000+0 -19892-4 0  9991",
    "line2": "2 48238  87.8957 291.9683 0001641  87.1526 272.9792 13.14502620246813"
  },
  {
    "name": "ONEWEB-0191",
    "noradId": "48239",
    "line1": "1 48239U 21031AF  26156.81524336  .00000141  00000+0  34475-3 0  9996",
    "line2": "2 48239  87.8960 291.9638 0002083  97.4786 262.6580 13.14501873246675"
  },
  {
    "name": "ONEWEB-0195",
    "noradId": "48240",
    "line1": "1 48240U 21031AG  26156.41163679 -.00000255  00000+0 -72222-3 0  9993",
    "line2": "2 48240  87.8962 292.0448 0001781 112.3071 247.8248 13.14501944246606"
  },
  {
    "name": "ONEWEB-0201",
    "noradId": "48241",
    "line1": "1 48241U 21031AH  26156.85660393 -.00000145  00000+0 -42519-3 0  9991",
    "line2": "2 48241  87.8953 291.9729 0002092 101.3794 258.7571 13.14504712246890"
  },
  {
    "name": "ONEWEB-0208",
    "noradId": "48243",
    "line1": "1 48243U 21031AK  26156.81841709  .00000233  00000+0  59288-3 0  9998",
    "line2": "2 48243  87.8959 291.9719 0001683 110.1272 250.0039 13.14503196246812"
  },
  {
    "name": "ONEWEB-0200",
    "noradId": "48244",
    "line1": "1 48244U 21031AL  26156.85804794 -.00000166  00000+0 -48212-3 0  9998",
    "line2": "2 48244  87.8960 291.9498 0001869 103.1988 256.9350 13.14502331246744"
  },
  {
    "name": "ONEWEB-0217",
    "noradId": "48245",
    "line1": "1 48245U 21031AM  26156.79779263 -.00000069  00000+0 -21990-3 0  9990",
    "line2": "2 48245  87.8963 291.9663 0001777 110.0861 250.0460 13.14502317246681"
  }
]